STARLINK-32636          
1 62232U 24231Q   26068.70064542  .00036029  00000+0  12224-2 0  9999
2 62232  53.1573 219.3296 0001043  53.6147 306.4950 15.30208563 71779
NUSHSAT1                
1 63211U 25052B   26068.64700493  .00023034  00000+0  74857-3 0  9997
2 63211  97.4095 325.7239 0005501  84.7512 275.4357 15.31903202 54882
