[{"OBJECT_NAME":"STARLINK-32636","OBJECT_ID":"2024-231Q","EPOCH":"2026-03-09T16:48:55.764288","MEAN_MOTION":15.30208563,"ECCENTRICITY":0.00010433,"INCLINATION":53.1573,"RA_OF_ASC_NODE":219.3296,"ARG_OF_PERICENTER":53.6147,"MEAN_ANOMALY":306.495,"EPHEMERIS_TYPE":0,"CLASSIFICATION_TYPE":"U","NORAD_CAT_ID":62232,"ELEMENT_SET_NO":999,"REV_AT_EPOCH":7177,"BSTAR":0.0012223511,"MEAN_MOTION_DOT":0.00036029,"MEAN_MOTION_DDOT":0},{"OBJECT_NAME":"NUSHSAT1","OBJECT_ID":"2025-052B","EPOCH":"2026-03-09T15:31:41.225952","MEAN_MOTION":15.31903202,"ECCENTRICITY":0.0005501,"INCLINATION":97.4095,"RA_OF_ASC_NODE":325.7239,"ARG_OF_PERICENTER":84.7512,"MEAN_ANOMALY":275.4357,"EPHEMERIS_TYPE":0,"CLASSIFICATION_TYPE":"U","NORAD_CAT_ID":63211,"ELEMENT_SET_NO":999,"REV_AT_EPOCH":5488,"BSTAR":0.00074857,"MEAN_MOTION_DOT":0.00023034,"MEAN_MOTION_DDOT":0}]
